CCSDS_OMM_VERS = 2.0
CREATION_DATE  = 
ORIGINATOR     = 

OBJECT_NAME    = STARLINK-36190
OBJECT_ID      = 2025-293AC
CENTER_NAME    = EARTH
REF_FRAME      = TEME
TIME_SYSTEM    = UTC
MEAN_ELEMENT_THEORY = SGP/SGP4

EPOCH          = 2026-01-09T06:00:00.999648
MEAN_MOTION    = 15.52550353
ECCENTRICITY   = .00032723
INCLINATION    = 69.9996
RA_OF_ASC_NODE = 246.0845
ARG_OF_PERICENTER = 273.6934
MEAN_ANOMALY   = 323.5728

EPHEMERIS_TYPE = 0
CLASSIFICATION_TYPE = U
NORAD_CAT_ID   = 67029
ELEMENT_SET_NO = 999
REV_AT_EPOCH   = 462
BSTAR          = -.1519963E-2
MEAN_MOTION_DOT = -.927E-3
MEAN_MOTION_DDOT = 0

CCSDS_OMM_VERS = 2.0
CREATION_DATE  = 
ORIGINATOR     = 

OBJECT_NAME    = STARLINK-36138
OBJECT_ID      = 2025-294A
CENTER_NAME    = EARTH
REF_FRAME      = TEME
TIME_SYSTEM    = UTC
MEAN_ELEMENT_THEORY = SGP/SGP4

EPOCH          = 2026-01-08T10:28:45.889536
MEAN_MOTION    = 15.40756611
ECCENTRICITY   = .00015509
INCLINATION    = 43.0014
RA_OF_ASC_NODE = 22.7419
ARG_OF_PERICENTER = 263.2478
MEAN_ANOMALY   = 96.8202

EPHEMERIS_TYPE = 0
CLASSIFICATION_TYPE = U
NORAD_CAT_ID   = 67030
ELEMENT_SET_NO = 999
REV_AT_EPOCH   = 553
BSTAR          = .13346212E-2
MEAN_MOTION_DOT = .55962E-3
MEAN_MOTION_DDOT = 0

CCSDS_OMM_VERS = 2.0
CREATION_DATE  = 
ORIGINATOR     = 

OBJECT_NAME    = STARLINK-36150
OBJECT_ID      = 2025-294B
CENTER_NAME    = EARTH
REF_FRAME      = TEME
TIME_SYSTEM    = UTC
MEAN_ELEMENT_THEORY = SGP/SGP4

EPOCH          = 2026-01-09T06:55:15.822912
MEAN_MOTION    = 15.40759119
ECCENTRICITY   = .0003085
INCLINATION    = 43.0046
RA_OF_ASC_NODE = 17.9547
ARG_OF_PERICENTER = 278.8316
MEAN_ANOMALY   = 81.2191

EPHEMERIS_TYPE = 0
CLASSIFICATION_TYPE = U
NORAD_CAT_ID   = 67031
ELEMENT_SET_NO = 999
REV_AT_EPOCH   = 566
BSTAR          = .11483949E-2
MEAN_MOTION_DOT = .48069E-3
MEAN_MOTION_DDOT = 0

CCSDS_OMM_VERS = 2.0
CREATION_DATE  = 
ORIGINATOR     = 

OBJECT_NAME    = STARLINK-36131
OBJECT_ID      = 2025-294C
CENTER_NAME    = EARTH
REF_FRAME      = TEME
TIME_SYSTEM    = UTC
MEAN_ELEMENT_THEORY = SGP/SGP4

EPOCH          = 2026-01-08T09:17:59.654400
MEAN_MOTION    = 15.40743028
ECCENTRICITY   = .00017274
INCLINATION    = 43.0015
RA_OF_ASC_NODE = 23.2332
ARG_OF_PERICENTER = 262.1203
MEAN_ANOMALY   = 97.9458

EPHEMERIS_TYPE = 0
CLASSIFICATION_TYPE = U
NORAD_CAT_ID   = 67032
ELEMENT_SET_NO = 999
REV_AT_EPOCH   = 552
BSTAR          = .15418489E-2
MEAN_MOTION_DOT = .64745E-3
MEAN_MOTION_DDOT = 0

CCSDS_OMM_VERS = 2.0
CREATION_DATE  = 
ORIGINATOR     = 

OBJECT_NAME    = STARLINK-36137
OBJECT_ID      = 2025-294D
CENTER_NAME    = EARTH
REF_FRAME      = TEME
TIME_SYSTEM    = UTC
MEAN_ELEMENT_THEORY = SGP/SGP4

EPOCH          = 2026-01-09T07:01:43.071168
MEAN_MOTION    = 15.40735121
ECCENTRICITY   = .00010508
INCLINATION    = 42.9983
RA_OF_ASC_NODE = 17.9862
ARG_OF_PERICENTER = 217.0022
MEAN_ANOMALY   = 143.0762

EPHEMERIS_TYPE = 0
CLASSIFICATION_TYPE = U
NORAD_CAT_ID   = 67033
ELEMENT_SET_NO = 999
REV_AT_EPOCH   = 566
BSTAR          = .10705617E-2
MEAN_MOTION_DOT = .44731E-3
MEAN_MOTION_DDOT = 0

CCSDS_OMM_VERS = 2.0
CREATION_DATE  = 
ORIGINATOR     = 

OBJECT_NAME    = STARLINK-36140
OBJECT_ID      = 2025-294E
CENTER_NAME    = EARTH
REF_FRAME      = TEME
TIME_SYSTEM    = UTC
MEAN_ELEMENT_THEORY = SGP/SGP4

EPOCH          = 2026-01-09T06:52:02.719776
MEAN_MOTION    = 15.40734853
ECCENTRICITY   = .0000728
INCLINATION    = 43.0019
RA_OF_ASC_NODE = 17.9369
ARG_OF_PERICENTER = 259.2799
MEAN_ANOMALY   = 100.7976

EPHEMERIS_TYPE = 0
CLASSIFICATION_TYPE = U
NORAD_CAT_ID   = 67034
ELEMENT_SET_NO = 999
REV_AT_EPOCH   = 566
BSTAR          = .14301579E-2
MEAN_MOTION_DOT = .59978E-3
MEAN_MOTION_DDOT = 0

CCSDS_OMM_VERS = 2.0
CREATION_DATE  = 
ORIGINATOR     = 

OBJECT_NAME    = STARLINK-36085
OBJECT_ID      = 2025-294F
CENTER_NAME    = EARTH
REF_FRAME      = TEME
TIME_SYSTEM    = UTC
MEAN_ELEMENT_THEORY = SGP/SGP4

EPOCH          = 2026-01-09T06:00:00.999648
MEAN_MOTION    = 15.40668899
ECCENTRICITY   = .00006977
INCLINATION    = 43.0003
RA_OF_ASC_NODE = 17.7249
ARG_OF_PERICENTER = 254.4044
MEAN_ANOMALY   = 79.2024

EPHEMERIS_TYPE = 0
CLASSIFICATION_TYPE = U
NORAD_CAT_ID   = 67035
ELEMENT_SET_NO = 999
REV_AT_EPOCH   = 450
BSTAR          = .72199842E-3
MEAN_MOTION_DOT = .29943E-3
MEAN_MOTION_DDOT = 0

CCSDS_OMM_VERS = 2.0
CREATION_DATE  = 
ORIGINATOR     = 

OBJECT_NAME    = STARLINK-36125
OBJECT_ID      = 2025-294G
CENTER_NAME    = EARTH
REF_FRAME      = TEME
TIME_SYSTEM    = UTC
MEAN_ELEMENT_THEORY = SGP/SGP4

EPOCH          = 2026-01-08T08:06:45.798912
MEAN_MOTION    = 15.50575915
ECCENTRICITY   = .0001259
INCLINATION    = 43.0001
RA_OF_ASC_NODE = 22.8489
ARG_OF_PERICENTER = 219.9963
MEAN_ANOMALY   = 140.0804

EPHEMERIS_TYPE = 0
CLASSIFICATION_TYPE = U
NORAD_CAT_ID   = 67036
ELEMENT_SET_NO = 999
REV_AT_EPOCH   = 552
BSTAR          = .11675E-2
MEAN_MOTION_DOT = .68746E-3
MEAN_MOTION_DDOT = 0

CCSDS_OMM_VERS = 2.0
CREATION_DATE  = 
ORIGINATOR     = 

OBJECT_NAME    = STARLINK-35732
OBJECT_ID      = 2025-294H
CENTER_NAME    = EARTH
REF_FRAME      = TEME
TIME_SYSTEM    = UTC
MEAN_ELEMENT_THEORY = SGP/SGP4

EPOCH          = 2026-01-09T06:00:00.999648
MEAN_MOTION    = 15.40664978
ECCENTRICITY   = .00008966
INCLINATION    = 42.9998
RA_OF_ASC_NODE = 17.6625
ARG_OF_PERICENTER = 276.9036
MEAN_ANOMALY   = 81.5989

EPHEMERIS_TYPE = 0
CLASSIFICATION_TYPE = U
NORAD_CAT_ID   = 67037
ELEMENT_SET_NO = 999
REV_AT_EPOCH   = 462
BSTAR          = .68169719E-3
MEAN_MOTION_DOT = .28245E-3
MEAN_MOTION_DDOT = 0

CCSDS_OMM_VERS = 2.0
CREATION_DATE  = 
ORIGINATOR     = 

OBJECT_NAME    = STARLINK-35775
OBJECT_ID      = 2025-294J
CENTER_NAME    = EARTH
REF_FRAME      = TEME
TIME_SYSTEM    = UTC
MEAN_ELEMENT_THEORY = SGP/SGP4

EPOCH          = 2026-01-09T00:00:02.999808
MEAN_MOTION    = 15.40653657
ECCENTRICITY   = .00017848
INCLINATION    = 43.0011
RA_OF_ASC_NODE = 19.3123
ARG_OF_PERICENTER = 252.2327
MEAN_ANOMALY   = 71.0629

EPHEMERIS_TYPE = 0
CLASSIFICATION_TYPE = U
NORAD_CAT_ID   = 67038
ELEMENT_SET_NO = 999
REV_AT_EPOCH   = 458
BSTAR          = .13712465E-2
MEAN_MOTION_DOT = .5732E-3
MEAN_MOTION_DDOT = 0

CCSDS_OMM_VERS = 2.0
CREATION_DATE  = 
ORIGINATOR     = 

OBJECT_NAME    = STARLINK-35705
OBJECT_ID      = 2025-294K
CENTER_NAME    = EARTH
REF_FRAME      = TEME
TIME_SYSTEM    = UTC
MEAN_ELEMENT_THEORY = SGP/SGP4

EPOCH          = 2026-01-09T04:10:39.890784
MEAN_MOTION    = 15.48971736
ECCENTRICITY   = .0011249
INCLINATION    = 43.0010
RA_OF_ASC_NODE = 17.9450
ARG_OF_PERICENTER = 7.5405
MEAN_ANOMALY   = 352.5622

EPHEMERIS_TYPE = 0
CLASSIFICATION_TYPE = U
NORAD_CAT_ID   = 67039
ELEMENT_SET_NO = 999
REV_AT_EPOCH   = 565
BSTAR          = -.40427425E-2
MEAN_MOTION_DOT = -.21891E-2
MEAN_MOTION_DDOT = 0

CCSDS_OMM_VERS = 2.0
CREATION_DATE  = 
ORIGINATOR     = 

OBJECT_NAME    = STARLINK-35786
OBJECT_ID      = 2025-294L
CENTER_NAME    = EARTH
REF_FRAME      = TEME
TIME_SYSTEM    = UTC
MEAN_ELEMENT_THEORY = SGP/SGP4

EPOCH          = 2026-01-08T10:31:59.507616
MEAN_MOTION    = 15.40744118
ECCENTRICITY   = .00014317
INCLINATION    = 43.0027
RA_OF_ASC_NODE = 22.7562
ARG_OF_PERICENTER = 247.2514
MEAN_ANOMALY   = 112.8191

EPHEMERIS_TYPE = 0
CLASSIFICATION_TYPE = U
NORAD_CAT_ID   = 67040
ELEMENT_SET_NO = 999
REV_AT_EPOCH   = 553
BSTAR          = .12295182E-2
MEAN_MOTION_DOT = .51479E-3
MEAN_MOTION_DDOT = 0

