STARLINK-36190          
1 67029U 25293AC  26009.25001157 -.00092700  00000+0 -15200-2 0  9992
2 67029  69.9996 246.0845 0003272 273.6934 323.5728 15.52550353  4627
STARLINK-36138          
1 67030U 25294A   26008.43664224  .00055962  00000+0  13346-2 0  9990
2 67030  43.0014  22.7419 0001550 263.2478  96.8202 15.40756611  5534
STARLINK-36150          
1 67031U 25294B   26009.28837758  .00048069  00000+0  11484-2 0  9990
2 67031  43.0046  17.9547 0003085 278.8316  81.2191 15.40759119  5661
STARLINK-36131          
1 67032U 25294C   26008.38749600  .00064745  00000+0  15418-2 0  9999
2 67032  43.0015  23.2332 0001727 262.1203  97.9458 15.40743028  5529
STARLINK-36137          
1 67033U 25294D   26009.29285962  .00044731  00000+0  10706-2 0  9995
2 67033  42.9983  17.9862 0001050 217.0022 143.0762 15.40735121  5668
STARLINK-36140          
1 67034U 25294E   26009.28614259  .00059978  00000+0  14302-2 0  9995
2 67034  43.0019  17.9369 0000728 259.2799 100.7976 15.40734853  5661
STARLINK-36085          
1 67035U 25294F   26009.25001157  .00029943  00000+0  72200-3 0  9991
2 67035  43.0003  17.7249 0000697 254.4044  79.2024 15.40668899  4507
STARLINK-36125          
1 67036U 25294G   26008.33803008  .00068746  00000+0  11675-2 0  9997
2 67036  43.0001  22.8489 0001259 219.9963 140.0804 15.50575915  5523
STARLINK-35732          
1 67037U 25294H   26009.25001157  .00028245  00000+0  68170-3 0  9998
2 67037  42.9998  17.6625 0000896 276.9036  81.5989 15.40664978  4621
STARLINK-35775          
1 67038U 25294J   26009.00003472  .00057320  00000+0  13712-2 0  9991
2 67038  43.0011  19.3123 0001784 252.2327  71.0629 15.40653657  4581
STARLINK-35705          
1 67039U 25294K   26009.17407281 -.00218910  00000+0 -40427-2 0  9995
2 67039  43.0010  17.9450 0011249   7.5405 352.5622 15.48971736  5651
STARLINK-35786          
1 67040U 25294L   26008.43888319  .00051479  00000+0  12295-2 0  9995
2 67040  43.0027  22.7562 0001431 247.2514 112.8191 15.40744118  5534
